HAWK-9C                 
1 59448U 24066G   26067.56477702  .00003036  00000+0  26713-3 0  9990
2 59448  45.5963  76.3952 0003436 229.7565 130.3016 14.98771048104736
STARLINK-36221          
1 67215U 25304Z   26068.70439357 -.00005012  00000+0 -41268-3 0  9998
2 67215  70.0026 174.5449 0004158 274.6212  85.4472 14.98316025 13883
